{"type": "FeatureCollection", "features": [ {"type": "Feature", "properties": {"norad_id": 67020, "name": "STARLINK-36172", "group": "last-30-days", "lat": 51.205439820276354, "lon": -44.633727480488794, "alt_km": 331.12535545122046, "timestamp": "2025-12-24T22:42:20.748449+00:00", "meta": {"OBJECT_NAME": "STARLINK-36172", "OBJECT_ID": "2025-293T", "EPOCH": "2025-12-24T06:00:02.000160", "MEAN_MOTION": 15.80904532, "ECCENTRICITY": 0.00039857, "INCLINATION": 69.9917, "RA_OF_ASC_NODE": 290.3949, "ARG_OF_PERICENTER": 277.8645, "MEAN_ANOMALY": 141.0631, "EPHEMERIS_TYPE": 0, "CLASSIFICATION_TYPE": "U", "NORAD_CAT_ID": 67020, "ELEMENT_SET_NO": 999, "REV_AT_EPOCH": 207, "BSTAR": -0.0092978836, "MEAN_MOTION_DOT": -0.0158227, "MEAN_MOTION_DDOT": 0}, "tle": {"line1": "1 67020U 25293T   25358.25002315 -.01582270  00000+0 -92979-2 0  9991", "line2": "2 67020  69.9917 290.3949 0003985 277.8645 141.0631 15.80904532  2070"}}, "geometry": {"type": "Point", "coordinates": [-44.633727480488794, 51.205439820276354]}}, {"type": "Feature", "properties": {"norad_id": 67021, "name": "STARLINK-36184", "group": "last-30-days", "lat": 53.27724710987249, "lon": -42.352845486633555, "alt_km": 330.947972731964, "timestamp": "2025-12-24T22:42:20.748459+00:00", "meta": {"OBJECT_NAME": "STARLINK-36184", "OBJECT_ID": "2025-293U", "EPOCH": "2025-12-24T06:00:02.000160", "MEAN_MOTION": 15.80881567, "ECCENTRICITY": 0.00038762, "INCLINATION": 69.9919, "RA_OF_ASC_NODE": 290.3919, "ARG_OF_PERICENTER": 276.6425, "MEAN_ANOMALY": 144.8374, "EPHEMERIS_TYPE": 0, "CLASSIFICATION_TYPE": "U", "NORAD_CAT_ID": 67021, "ELEMENT_SET_NO": 999, "REV_AT_EPOCH": 207, "BSTAR": -0.0092971527, "MEAN_MOTION_DOT": -0.0158057, "MEAN_MOTION_DDOT": 0}, "tle": {"line1": "1 67021U 25293U   25358.25002315 -.01580570  00000+0 -92972-2 0  9996", "line2": "2 67021  69.9919 290.3919 0003876 276.6425 144.8374 15.80881567  2079"}}, "geometry": {"type": "Point", "coordinates": [-42.352845486633555, 53.27724710987249]}}, {"type": "Feature", "properties": {"norad_id": 67022, "name": "STARLINK-36209", "group": "last-30-days", "lat": 55.54313672542338, "lon": -39.518925865231985, "alt_km": 330.66700322054203, "timestamp": "2025-12-24T22:42:20.748469+00:00", "meta": {"OBJECT_NAME": "STARLINK-36209", "OBJECT_ID": "2025-293V", "EPOCH": "2025-12-24T06:00:02.000160", "MEAN_MOTION": 15.80859251, "ECCENTRICITY": 0.00036495, "INCLINATION": 69.9916, "RA_OF_ASC_NODE": 290.3884, "ARG_OF_PERICENTER": 278.362, "MEAN_ANOMALY": 146.0029, "EPHEMERIS_TYPE": 0, "CLASSIFICATION_TYPE": "U", "NORAD_CAT_ID": 67022, "ELEMENT_SET_NO": 999, "REV_AT_EPOCH": 207, "BSTAR": -0.0093984294, "MEAN_MOTION_DOT": -0.01593936, "MEAN_MOTION_DDOT": 0}, "tle": {"line1": "1 67022U 25293V   25358.25002315 -.01593936  00000+0 -93984-2 0  9991", "line2": "2 67022  69.9916 290.3884 0003649 278.3620 146.0029 15.80859251  2078"}}, "geometry": {"type": "Point", "coordinates": [-39.518925865231985, 55.54313672542338]}}, {"type": "Feature", "properties": {"norad_id": 67023, "name": "STARLINK-36191", "group": "last-30-days", "lat": 57.440838164391366, "lon": -36.80102323899051, "alt_km": 330.73220113262323, "timestamp": "2025-12-24T22:42:20.748481+00:00", "meta": {"OBJECT_NAME": "STARLINK-36191", "OBJECT_ID": "2025-293W", "EPOCH": "2025-12-24T06:00:02.000160", "MEAN_MOTION": 15.80839388, "ECCENTRICITY": 0.00038546, "INCLINATION": 69.9916, "RA_OF_ASC_NODE": 290.3849, "ARG_OF_PERICENTER": 275.5583, "MEAN_ANOMALY": 151.2724, "EPHEMERIS_TYPE": 0, "CLASSIFICATION_TYPE": "U", "NORAD_CAT_ID": 67023, "ELEMENT_SET_NO": 999, "REV_AT_EPOCH": 196, "BSTAR": -0.0094014283, "MEAN_MOTION_DOT": -0.01593309, "MEAN_MOTION_DDOT": 0}, "tle": {"line1": "1 67023U 25293W   25358.25002315 -.01593309  00000+0 -94014-2 0  9991", "line2": "2 67023  69.9916 290.3849 0003854 275.5583 151.2724 15.80839388  1961"}}, "geometry": {"type": "Point", "coordinates": [-36.80102323899051, 57.440838164391366]}}, {"type": "Feature", "properties": {"norad_id": 67024, "name": "STARLINK-36192", "group": "last-30-days", "lat": 59.450047442802166, "lon": -33.47651002090932, "alt_km": 330.5191088047359, "timestamp": "2025-12-24T22:42:20.748491+00:00", "meta": {"OBJECT_NAME": "STARLINK-36192", "OBJECT_ID": "2025-293X", "EPOCH": "2025-12-24T06:00:02.000160", "MEAN_MOTION": 15.80797654, "ECCENTRICITY": 0.00037073, "INCLINATION": 69.9919, "RA_OF_ASC_NODE": 290.3822, "ARG_OF_PERICENTER": 275.0703, "MEAN_ANOMALY": 154.4902, "EPHEMERIS_TYPE": 0, "CLASSIFICATION_TYPE": "U", "NORAD_CAT_ID": 67024, "ELEMENT_SET_NO": 999, "REV_AT_EPOCH": 207, "BSTAR": -0.0093210703, "MEAN_MOTION_DOT": -0.0157856, "MEAN_MOTION_DDOT": 0}, "tle": {"line1": "1 67024U 25293X   25358.25002315 -.01578560  00000+0 -93211-2 0  9992", "line2": "2 67024  69.9919 290.3822 0003707 275.0703 154.4902 15.80797654  2077"}}, "geometry": {"type": "Point", "coordinates": [-33.47651002090932, 59.450047442802166]}}, {"type": "Feature", "properties": {"norad_id": 67025, "name": "STARLINK-36178", "group": "last-30-days", "lat": 61.092281113530625, "lon": -30.313341086880136, "alt_km": 330.38025866920725, "timestamp": "2025-12-24T22:42:20.748501+00:00", "meta": {"OBJECT_NAME": "STARLINK-36178", "OBJECT_ID": "2025-293Y", "EPOCH": "2025-12-24T06:00:02.000160", "MEAN_MOTION": 15.80784634, "ECCENTRICITY": 0.00036064, "INCLINATION": 69.9918, "RA_OF_ASC_NODE": 290.3792, "ARG_OF_PERICENTER": 273.4819, "MEAN_ANOMALY": 158.3846, "EPHEMERIS_TYPE": 0, "CLASSIFICATION_TYPE": "U", "NORAD_CAT_ID": 67025, "ELEMENT_SET_NO": 999, "REV_AT_EPOCH": 207, "BSTAR": -0.009336309, "MEAN_MOTION_DOT": -0.0157988, "MEAN_MOTION_DDOT": 0}, "tle": {"line1": "1 67025U 25293Y   25358.25002315 -.01579880  00000+0 -93363-2 0  9997", "line2": "2 67025  69.9918 290.3792 0003606 273.4819 158.3846 15.80784634  2075"}}, "geometry": {"type": "Point", "coordinates": [-30.313341086880136, 61.092281113530625]}}, {"type": "Feature", "properties": {"norad_id": 67026, "name": "STARLINK-36176", "group": "last-30-days", "lat": 64.32588237937988, "lon": -22.318483094875923, "alt_km": 330.21342586790433, "timestamp": "2025-12-24T22:42:20.748511+00:00", "meta": {"OBJECT_NAME": "STARLINK-36176", "OBJECT_ID": "2025-293Z", "EPOCH": "2025-12-24T06:00:02.000160", "MEAN_MOTION": 15.80758976, "ECCENTRICITY": 0.00036553, "INCLINATION": 69.9915, "RA_OF_ASC_NODE": 290.3731, "ARG_OF_PERICENTER": 277.3047, "MEAN_ANOMALY": 159.5319, "EPHEMERIS_TYPE": 0, "CLASSIFICATION_TYPE": "U", "NORAD_CAT_ID": 67026, "ELEMENT_SET_NO": 999, "REV_AT_EPOCH": 207, "BSTAR": -0.0094456445, "MEAN_MOTION_DOT": -0.01594436, "MEAN_MOTION_DDOT": 0}, "tle": {"line1": "1 67026U 25293Z   25358.25002315 -.01594436  00000+0 -94456-2 0  9996", "line2": "2 67026  69.9915 290.3731 0003655 277.3047 159.5319 15.80758976  2074"}}, "geometry": {"type": "Point", "coordinates": [-22.318483094875923, 64.32588237937988]}}, {"type": "Feature", "properties": {"norad_id": 67027, "name": "STARLINK-36171", "group": "last-30-days", "lat": 62.94706960247678, "lon": -26.083455952296077, "alt_km": 330.1631845034535, "timestamp": "2025-12-24T22:42:20.748522+00:00", "meta": {"OBJECT_NAME": "STARLINK-36171", "OBJECT_ID": "2025-293AA", "EPOCH": "2025-12-24T06:00:02.000160", "MEAN_MOTION": 15.80754116, "ECCENTRICITY": 0.00034891, "INCLINATION": 69.9914, "RA_OF_ASC_NODE": 290.3759, "ARG_OF_PERICENTER": 277.2259, "MEAN_ANOMALY": 157.4276, "EPHEMERIS_TYPE": 0, "CLASSIFICATION_TYPE": "U", "NORAD_CAT_ID": 67027, "ELEMENT_SET_NO": 999, "REV_AT_EPOCH": 207, "BSTAR": -0.0093477714, "MEAN_MOTION_DOT": -0.01579501, "MEAN_MOTION_DDOT": 0}, "tle": {"line1": "1 67027U 25293AA  25358.25002315 -.01579501  00000+0 -93478-2 0  9996", "line2": "2 67027  69.9914 290.3759 0003489 277.2259 157.4276 15.80754116  2074"}}, "geometry": {"type": "Point", "coordinates": [-26.083455952296077, 62.94706960247678]}}, {"type": "Feature", "properties": {"norad_id": 67028, "name": "STARLINK-36132", "group": "last-30-days", "lat": 67.03346615947028, "lon": -12.31553104842083, "alt_km": 330.1948393956909, "timestamp": "2025-12-24T22:42:20.748534+00:00", "meta": {"OBJECT_NAME": "STARLINK-36132", "OBJECT_ID": "2025-293AB", "EPOCH": "2025-12-24T06:00:02.000160", "MEAN_MOTION": 15.80696368, "ECCENTRICITY": 0.00037699, "INCLINATION": 69.9918, "RA_OF_ASC_NODE": 290.3672, "ARG_OF_PERICENTER": 276.9212, "MEAN_ANOMALY": 164.9478, "EPHEMERIS_TYPE": 0, "CLASSIFICATION_TYPE": "U", "NORAD_CAT_ID": 67028, "ELEMENT_SET_NO": 999, "REV_AT_EPOCH": 207, "BSTAR": -0.0093397811, "MEAN_MOTION_DOT": -0.01574905, "MEAN_MOTION_DDOT": 0}, "tle": {"line1": "1 67028U 25293AB  25358.25002315 -.01574905  00000+0 -93398-2 0  9991", "line2": "2 67028  69.9918 290.3672 0003769 276.9212 164.9478 15.80696368  2070"}}, "geometry": {"type": "Point", "coordinates": [-12.31553104842083, 67.03346615947028]}}, {"type": "Feature", "properties": {"norad_id": 67029, "name": "STARLINK-36190", "group": "last-30-days", "lat": 65.64789662483716, "lon": -17.993873893797808, "alt_km": 330.2119916162992, "timestamp": "2025-12-24T22:42:20.748544+00:00", "meta": {"OBJECT_NAME": "STARLINK-36190", "OBJECT_ID": "2025-293AC", "EPOCH": "2025-12-24T06:00:02.000160", "MEAN_MOTION": 15.8074261, "ECCENTRICITY": 0.00036484, "INCLINATION": 69.9919, "RA_OF_ASC_NODE": 290.3709, "ARG_OF_PERICENTER": 272.783, "MEAN_ANOMALY": 166.3467, "EPHEMERIS_TYPE": 0, "CLASSIFICATION_TYPE": "U", "NORAD_CAT_ID": 67029, "ELEMENT_SET_NO": 999, "REV_AT_EPOCH": 207, "BSTAR": -0.0094371349, "MEAN_MOTION_DOT": -0.01592116, "MEAN_MOTION_DDOT": 0}, "tle": {"line1": "1 67029U 25293AC  25358.25002315 -.01592116  00000+0 -94371-2 0  9998", "line2": "2 67029  69.9919 290.3709 0003648 272.7830 166.3467 15.80742610  2075"}}, "geometry": {"type": "Point", "coordinates": [-17.993873893797808, 65.64789662483716]}}]}